[
    {
        "Altitude(m)": 553475.2199295306,
        "Argument of Periapsis(deg)": 0.0,
        "Eccentricity": 0.0,
        "Inclination(deg)": 53.0,
        "Latitude(deg)": 13.004379166712981,
        "Longitude(deg)": 29.997567931096,
        "Mean Anomaly(deg)": 16.363600000000012,
        "RAAN(deg)": 120.0,
        "Satellite Name": "Starlink Shell 1 529",
        "Satellite Number": 529,
        "Semi-Major Axis(m)": 6931778.249405717,
        "Time(s)": 0
    },
    {
        "Altitude(m)": 553482.4715030539,
        "Argument of Periapsis(deg)": 0.00034857847951123687,
        "Eccentricity": 0.0,
        "Inclination(deg)": 53.0,
        "Latitude(deg)": 13.500321214044076,
        "Longitude(deg)": 30.35381549531242,
        "Mean Anomaly(deg)": 16.990431203556707,
        "RAAN(deg)": 119.99948122992252,
        "Satellite Name": "Starlink Shell 1 529",
        "Satellite Number": 529,
        "Semi-Major Axis(m)": 6931778.249405717,
        "Time(s)": 10
    },
    {
        "Altitude(m)": 553492.2553755195,
        "Argument of Periapsis(deg)": 0.0006971569590224737,
        "Eccentricity": 0.0,
        "Inclination(deg)": 53.0,
        "Latitude(deg)": 13.995615474203683,
        "Longitude(deg)": 30.71170910935998,
        "Mean Anomaly(deg)": 17.61726240711343,
        "RAAN(deg)": 119.99896245984505,
        "Satellite Name": "Starlink Shell 1 529",
        "Satellite Number": 529,
        "Semi-Major Axis(m)": 6931778.249405717,
        "Time(s)": 20
    },
    {
        "Altitude(m)": 553504.5441961834,
        "Argument of Periapsis(deg)": 0.0010457354385337105,
        "Eccentricity": 0.0,
        "Inclination(deg)": 53.0,
        "Latitude(deg)": 14.490234279724598,
        "Longitude(deg)": 31.071316113999387,
        "Mean Anomaly(deg)": 18.24409361067015,
        "RAAN(deg)": 119.99844368976757,
        "Satellite Name": "Starlink Shell 1 529",
        "Satellite Number": 529,
        "Semi-Major Axis(m)": 6931778.249405717,
        "Time(s)": 30
    },
    {
        "Altitude(m)": 553519.309481742,
        "Argument of Periapsis(deg)": 0.0013943139180449475,
        "Eccentricity": 0.0,
        "Inclination(deg)": 53.0,
        "Latitude(deg)": 14.98414959056292,
        "Longitude(deg)": 31.432705087160848,
        "Mean Anomaly(deg)": 18.870924814226868,
        "RAAN(deg)": 119.9979249196901,
        "Satellite Name": "Starlink Shell 1 529",
        "Satellite Number": 529,
        "Semi-Major Axis(m)": 6931778.249405717,
        "Time(s)": 40
    },
    {
        "Altitude(m)": 553536.5216331865,
        "Argument of Periapsis(deg)": 0.0017428923975561844,
        "Eccentricity": 0.0,
        "Inclination(deg)": 53.0,
        "Latitude(deg)": 15.47733297765277,
        "Longitude(deg)": 31.79594486235457,
        "Mean Anomaly(deg)": 19.497756017783566,
        "RAAN(deg)": 119.99740614961262,
        "Satellite Name": "Starlink Shell 1 529",
        "Satellite Number": 529,
        "Semi-Major Axis(m)": 6931778.249405717,
        "Time(s)": 50
    },
    {
        "Altitude(m)": 553556.1499531602,
        "Argument of Periapsis(deg)": 0.002091470877067421,
        "Eccentricity": 0.0,
        "Inclination(deg)": 53.0,
        "Latitude(deg)": 15.969755606116792,
        "Longitude(deg)": 32.1611050599413,
        "Mean Anomaly(deg)": 20.12458722134029,
        "RAAN(deg)": 119.99688737953517,
        "Satellite Name": "Starlink Shell 1 529",
        "Satellite Number": 529,
        "Semi-Major Axis(m)": 6931778.249405717,
        "Time(s)": 60
    },
    {
        "Altitude(m)": 553578.162663861,
        "Argument of Periapsis(deg)": 0.0024400493565786582,
        "Eccentricity": 0.0,
        "Inclination(deg)": 53.0,
        "Latitude(deg)": 16.461388218116607,
        "Longitude(deg)": 32.52825661836738,
        "Mean Anomaly(deg)": 20.751418424897007,
        "RAAN(deg)": 119.99636860945769,
        "Satellite Name": "Starlink Shell 1 529",
        "Satellite Number": 529,
        "Semi-Major Axis(m)": 6931778.249405717,
        "Time(s)": 70
    },
    {
        "Altitude(m)": 553602.5269254611,
        "Argument of Periapsis(deg)": 0.002788627836089895,
        "Eccentricity": 0.0,
        "Inclination(deg)": 53.0,
        "Latitude(deg)": 16.952201115328904,
        "Longitude(deg)": 32.89747081246539,
        "Mean Anomaly(deg)": 21.37824962845373,
        "RAAN(deg)": 119.99584983938021,
        "Satellite Name": "Starlink Shell 1 529",
        "Satellite Number": 529,
        "Semi-Major Axis(m)": 6931778.249405717,
        "Time(s)": 80
    },
    {
        "Altitude(m)": 553629.208855048,
        "Argument of Periapsis(deg)": 0.0031372063156011316,
        "Eccentricity": 0.0,
        "Inclination(deg)": 53.0,
        "Latitude(deg)": 17.442164141039505,
        "Longitude(deg)": 33.26881978453798,
        "Mean Anomaly(deg)": 22.00508083201045,
        "RAAN(deg)": 119.99533106930274,
        "Satellite Name": "Starlink Shell 1 529",
        "Satellite Number": 529,
        "Semi-Major Axis(m)": 6931778.249405717,
        "Time(s)": 90
    },
    {
        "Altitude(m)": 553658.1735460445,
        "Argument of Periapsis(deg)": 0.0034857847951123688,
        "Eccentricity": 0.0,
        "Inclination(deg)": 53.0,
        "Latitude(deg)": 17.931246661840454,
        "Longitude(deg)": 33.64237707532019,
        "Mean Anomaly(deg)": 22.631912035567147,
        "RAAN(deg)": 119.99481229922527,
        "Satellite Name": "Starlink Shell 1 529",
        "Satellite Number": 529,
        "Semi-Major Axis(m)": 6931778.249405717,
        "Time(s)": 100
    },
    {
        "Altitude(m)": 553689.3850881214,
        "Argument of Periapsis(deg)": 0.003834363274623606,
        "Eccentricity": 0.0,
        "Inclination(deg)": 53.0,
        "Latitude(deg)": 18.41941754891608,
        "Longitude(deg)": 34.01821664190956,
        "Mean Anomaly(deg)": 23.258743239123866,
        "RAAN(deg)": 119.99429352914778,
        "Satellite Name": "Starlink Shell 1 529",
        "Satellite Number": 529,
        "Semi-Major Axis(m)": 6931778.249405717,
        "Time(s)": 110
    },
    {
        "Altitude(m)": 553722.806587607,
        "Argument of Periapsis(deg)": 0.004182941754134842,
        "Eccentricity": 0.0,
        "Inclination(deg)": 53.0,
        "Latitude(deg)": 18.90664515891039,
        "Longitude(deg)": 34.396413388373055,
        "Mean Anomaly(deg)": 23.885574442680564,
        "RAAN(deg)": 119.99377475907032,
        "Satellite Name": "Starlink Shell 1 529",
        "Satellite Number": 529,
        "Semi-Major Axis(m)": 6931778.249405717,
        "Time(s)": 120
    },
    {
        "Altitude(m)": 553758.4001883264,
        "Argument of Periapsis(deg)": 0.004531520233646079,
        "Eccentricity": 0.0,
        "Inclination(deg)": 53.0,
        "Latitude(deg)": 19.39289731436241,
        "Longitude(deg)": 34.77704369611188,
        "Mean Anomaly(deg)": 24.51240564623731,
        "RAAN(deg)": 119.99325598899286,
        "Satellite Name": "Starlink Shell 1 529",
        "Satellite Number": 529,
        "Semi-Major Axis(m)": 6931778.249405717,
        "Time(s)": 130
    },
    {
        "Altitude(m)": 553796.1270929417,
        "Argument of Periapsis(deg)": 0.0048800987131573164,
        "Eccentricity": 0.0,
        "Inclination(deg)": 53.0,
        "Latitude(deg)": 19.87814128369489,
        "Longitude(deg)": 35.16018444106262,
        "Mean Anomaly(deg)": 25.139236849794006,
        "RAAN(deg)": 119.99273721891538,
        "Satellite Name": "Starlink Shell 1 529",
        "Satellite Number": 529,
        "Semi-Major Axis(m)": 6931778.249405717,
        "Time(s)": 140
    },
    {
        "Altitude(m)": 553835.9475846818,
        "Argument of Periapsis(deg)": 0.005228677192668553,
        "Eccentricity": 0.0,
        "Inclination(deg)": 53.0,
        "Latitude(deg)": 20.36234376075098,
        "Longitude(deg)": 35.545913523429284,
        "Mean Anomaly(deg)": 25.76606805335073,
        "RAAN(deg)": 119.9922184488379,
        "Satellite Name": "Starlink Shell 1 529",
        "Satellite Number": 529,
        "Semi-Major Axis(m)": 6931778.249405717,
        "Time(s)": 150
    },
    {
        "Altitude(m)": 553877.8210495476,
        "Argument of Periapsis(deg)": 0.00557725567217979,
        "Eccentricity": 0.0,
        "Inclination(deg)": 53.0,
        "Latitude(deg)": 20.845470843865062,
        "Longitude(deg)": 35.934310397012815,
        "Mean Anomaly(deg)": 26.392899256907445,
        "RAAN(deg)": 119.99169967876044,
        "Satellite Name": "Starlink Shell 1 529",
        "Satellite Number": 529,
        "Semi-Major Axis(m)": 6931778.249405717,
        "Time(s)": 160
    },
    {
        "Altitude(m)": 553921.7059989073,
        "Argument of Periapsis(deg)": 0.0059258341516910265,
        "Eccentricity": 0.0,
        "Inclination(deg)": 53.0,
        "Latitude(deg)": 21.32748801445574,
        "Longitude(deg)": 36.32545508520137,
        "Mean Anomaly(deg)": 27.019730460464146,
        "RAAN(deg)": 119.99118090868295,
        "Satellite Name": "Starlink Shell 1 529",
        "Satellite Number": 529,
        "Semi-Major Axis(m)": 6931778.249405717,
        "Time(s)": 170
    },
    {
        "Altitude(m)": 553967.5600925174,
        "Argument of Periapsis(deg)": 0.006274412631202263,
        "Eccentricity": 0.0,
        "Inclination(deg)": 53.0,
        "Latitude(deg)": 21.808360115136146,
        "Longitude(deg)": 36.71942870929886,
        "Mean Anomaly(deg)": 27.646561664020886,
        "RAAN(deg)": 119.99066213860549,
        "Satellite Name": "Starlink Shell 1 529",
        "Satellite Number": 529,
        "Semi-Major Axis(m)": 6931778.249405717,
        "Time(s)": 180
    }
]